{
  "type": "FeatureCollection",
  "features": [
    {
      "type": "Feature",
      "properties": {
        "norad_id": 34022,
        "name": "COSMOS 2251 DEB",
        "group": "cosmos-2251-debris",
        "lat": -61.26888125662045,
        "lon": -113.26826463081663,
        "alt_km": 758.2918219294097,
        "timestamp": "2025-12-08T17:43:05.331202+00:00",
        "meta_object_name": "COSMOS 2251 DEB",
        "meta_object_id": "1993-036HH",
        "meta_epoch": "2025-12-08T06:55:47.535168",
        "meta_mean_motion": 14.38953135,
        "meta_eccentricity": 0.00225548,
        "meta_inclination": 74.0541,
        "meta_ra_of_asc_node": 278.996,
        "meta_arg_of_pericenter": 344.7405,
        "meta_mean_anomaly": 142.0869,
        "meta_ephemeris_type": 0,
        "meta_classification_type": "U",
        "meta_norad_cat_id": 34022,
        "meta_element_set_no": 999,
        "meta_rev_at_epoch": 88131,
        "meta_bstar": 0.00048927894,
        "meta_mean_motion_dot": 1.487e-05,
        "meta_mean_motion_ddot": 0,
        "tle_line1": "1 34022U 93036HH  25342.28874462  .00001487  00000+0  48928-3 0  9992",
        "tle_line2": "2 34022  74.0541 278.9960 0022554 344.7405 142.0869 14.38953135881313"
      },
      "geometry": {
        "type": "Point",
        "coordinates": [
          -113.26826463081663,
          -61.26888125662045
        ]
      }
    },
    {
      "type": "Feature",
      "properties": {
        "norad_id": 34023,
        "name": "COSMOS 2251 DEB",
        "group": "cosmos-2251-debris",
        "lat": -10.514626144915873,
        "lon": 82.1959458847953,
        "alt_km": 773.1545289354308,
        "timestamp": "2025-12-08T17:43:05.331212+00:00",
        "meta_object_name": "COSMOS 2251 DEB",
        "meta_object_id": "1993-036HJ",
        "meta_epoch": "2025-12-08T05:52:44.753088",
        "meta_mean_motion": 14.40546247,
        "meta_eccentricity": 0.00183074,
        "meta_inclination": 74.026,
        "meta_ra_of_asc_node": 260.0609,
        "meta_arg_of_pericenter": 356.3791,
        "meta_mean_anomaly": 157.3299,
        "meta_ephemeris_type": 0,
        "meta_classification_type": "U",
        "meta_norad_cat_id": 34023,
        "meta_element_set_no": 999,
        "meta_rev_at_epoch": 88149,
        "meta_bstar": 0.00064537339,
        "meta_mean_motion_dot": 2.033e-05,
        "meta_mean_motion_ddot": 0,
        "tle_line1": "1 34023U 93036HJ  25342.24496242  .00002033  00000+0  64537-3 0  9997",
        "tle_line2": "2 34023  74.0260 260.0609 0018307 356.3791 157.3299 14.40546247881492"
      },
      "geometry": {
        "type": "Point",
        "coordinates": [
          82.1959458847953,
          -10.514626144915873
        ]
      }
    },
    {
      "type": "Feature",
      "properties": {
        "norad_id": 34024,
        "name": "COSMOS 2251 DEB",
        "group": "cosmos-2251-debris",
        "lat": -73.45252492268077,
        "lon": -110.99129694334907,
        "alt_km": 783.4527959442394,
        "timestamp": "2025-12-08T17:43:05.331223+00:00",
        "meta_object_name": "COSMOS 2251 DEB",
        "meta_object_id": "1993-036HK",
        "meta_epoch": "2025-12-08T06:56:28.596768",
        "meta_mean_motion": 14.35388827,
        "meta_eccentricity": 0.00208293,
        "meta_inclination": 74.0462,
        "meta_ra_of_asc_node": 324.151,
        "meta_arg_of_pericenter": 15.9977,
        "meta_mean_anomaly": 99.244,
        "meta_ephemeris_type": 0,
        "meta_classification_type": "U",
        "meta_norad_cat_id": 34024,
        "meta_element_set_no": 999,
        "meta_rev_at_epoch": 87960,
        "meta_bstar": 0.0003748833,
        "meta_mean_motion_dot": 1.053e-05,
        "meta_mean_motion_ddot": 0,
        "tle_line1": "1 34024U 93036HK  25342.28921987  .00001053  00000+0  37488-3 0  9997",
        "tle_line2": "2 34024  74.0462 324.1510 0020829  15.9977  99.2440 14.35388827879600"
      },
      "geometry": {
        "type": "Point",
        "coordinates": [
          -110.99129694334907,
          -73.45252492268077
        ]
      }
    },
    {
      "type": "Feature",
      "properties": {
        "norad_id": 34026,
        "name": "COSMOS 2251 DEB",
        "group": "cosmos-2251-debris",
        "lat": 73.4094480855191,
        "lon": 61.84053845185517,
        "alt_km": 1162.9884861792289,
        "timestamp": "2025-12-08T17:43:05.331233+00:00",
        "meta_object_name": "COSMOS 2251 DEB",
        "meta_object_id": "1993-036HM",
        "meta_epoch": "2025-12-08T06:51:00.188640",
        "meta_mean_motion": 13.65298104,
        "meta_eccentricity": 0.03509034,
        "meta_inclination": 73.7677,
        "meta_ra_of_asc_node": 344.6928,
        "meta_arg_of_pericenter": 215.3674,
        "meta_mean_anomaly": 169.5214,
        "meta_ephemeris_type": 0,
        "meta_classification_type": "U",
        "meta_norad_cat_id": 34026,
        "meta_element_set_no": 999,
        "meta_rev_at_epoch": 83471,
        "meta_bstar": 0.0014352504,
        "meta_mean_motion_dot": 1.753e-05,
        "meta_mean_motion_ddot": 0,
        "tle_line1": "1 34026U 93036HM  25342.28541885  .00001753  00000+0  14353-2 0  9996",
        "tle_line2": "2 34026  73.7677 344.6928 0350903 215.3674 169.5214 13.65298104834718"
      },
      "geometry": {
        "type": "Point",
        "coordinates": [
          61.84053845185517,
          73.4094480855191
        ]
      }
    },
    {
      "type": "Feature",
      "properties": {
        "norad_id": 34028,
        "name": "COSMOS 2251 DEB",
        "group": "cosmos-2251-debris",
        "lat": 22.066692263927322,
        "lon": 0.11622989174894881,
        "alt_km": 1293.7523210415357,
        "timestamp": "2025-12-08T17:43:05.331245+00:00",
        "meta_object_name": "COSMOS 2251 DEB",
        "meta_object_id": "1993-036HP",
        "meta_epoch": "2025-12-08T06:47:25.584864",
        "meta_mean_motion": 13.20619071,
        "meta_eccentricity": 0.0543859,
        "meta_inclination": 73.8835,
        "meta_ra_of_asc_node": 354.0834,
        "meta_arg_of_pericenter": 132.6932,
        "meta_mean_anomaly": 252.4732,
        "meta_ephemeris_type": 0,
        "meta_classification_type": "U",
        "meta_norad_cat_id": 34028,
        "meta_element_set_no": 999,
        "meta_rev_at_epoch": 80949,
        "meta_bstar": 0.00039047114,
        "meta_mean_motion_dot": 3.28e-06,
        "meta_mean_motion_ddot": 0,
        "tle_line1": "1 34028U 93036HP  25342.28293501  .00000328  00000+0  39047-3 0  9992",
        "tle_line2": "2 34028  73.8835 354.0834 0543859 132.6932 252.4732 13.20619071809495"
      },
      "geometry": {
        "type": "Point",
        "coordinates": [
          0.11622989174894881,
          22.066692263927322
        ]
      }
    },
    {
      "type": "Feature",
      "properties": {
        "norad_id": 34031,
        "name": "COSMOS 2251 DEB",
        "group": "cosmos-2251-debris",
        "lat": 62.71753267100065,
        "lon": -70.42158840123464,
        "alt_km": 702.2421962177541,
        "timestamp": "2025-12-08T17:43:05.331256+00:00",
        "meta_object_name": "COSMOS 2251 DEB",
        "meta_object_id": "1993-036HS",
        "meta_epoch": "2025-12-07T22:09:59.116896",
        "meta_mean_motion": 14.59595142,
        "meta_eccentricity": 0.00229988,
        "meta_inclination": 74.0124,
        "meta_ra_of_asc_node": 144.9055,
        "meta_arg_of_pericenter": 265.4775,
        "meta_mean_anomaly": 248.1028,
        "meta_ephemeris_type": 0,
        "meta_classification_type": "U",
        "meta_norad_cat_id": 34031,
        "meta_element_set_no": 999,
        "meta_rev_at_epoch": 88495,
        "meta_bstar": 0.0016640932,
        "meta_mean_motion_dot": 7.924e-05,
        "meta_mean_motion_ddot": 0,
        "tle_line1": "1 34031U 93036HS  25341.92360089  .00007924  00000+0  16641-2 0  9995",
        "tle_line2": "2 34031  74.0124 144.9055 0022998 265.4775 248.1028 14.59595142884959"
      },
      "geometry": {
        "type": "Point",
        "coordinates": [
          -70.42158840123464,
          62.71753267100065
        ]
      }
    },
    {
      "type": "Feature",
      "properties": {
        "norad_id": 34035,
        "name": "COSMOS 2251 DEB",
        "group": "cosmos-2251-debris",
        "lat": 26.08049687245041,
        "lon": 4.702536806456007,
        "alt_km": 690.5395924381564,
        "timestamp": "2025-12-08T17:43:05.331267+00:00",
        "meta_object_name": "COSMOS 2251 DEB",
        "meta_object_id": "1993-036HW",
        "meta_epoch": "2025-12-08T01:12:21.303648",
        "meta_mean_motion": 14.51849253,
        "meta_eccentricity": 0.00443907,
        "meta_inclination": 74.0657,
        "meta_ra_of_asc_node": 357.957,
        "meta_arg_of_pericenter": 0.5163,
        "meta_mean_anomaly": 32.0172,
        "meta_ephemeris_type": 0,
        "meta_classification_type": "U",
        "meta_norad_cat_id": 34035,
        "meta_element_set_no": 999,
        "meta_rev_at_epoch": 87898,
        "meta_bstar": 0.0019532942,
        "meta_mean_motion_dot": 7.948e-05,
        "meta_mean_motion_ddot": 0,
        "tle_line1": "1 34035U 93036HW  25342.05024657  .00007948  00000+0  19533-2 0  9991",
        "tle_line2": "2 34035  74.0657 357.9570 0044390   0.5163  32.0172 14.51849253878984"
      },
      "geometry": {
        "type": "Point",
        "coordinates": [
          4.702536806456007,
          26.08049687245041
        ]
      }
    }
  ]
}